$$SOE
2461302.500000000, A.D. 2026-Sep-19 00:00:00.0000, 3.175056350849103E+08, -2.852948054492844E+08, 1.326315166107661E+07,
2461309.500000000, A.D. 2026-Sep-26 00:00:00.0000, 3.232106101593079E+08, -2.766059559801666E+08, 1.145564628762515E+07,
2461316.500000000, A.D. 2026-Oct-03 00:00:00.0000, 3.287120251521963E+08, -2.677429285490688E+08, 9.640927290432125E+06,
2461323.500000000, A.D. 2026-Oct-10 00:00:00.0000, 3.340042069069073E+08, -2.587095097481514E+08, 7.820073025464535E+06,
2461330.500000000, A.D. 2026-Oct-17 00:00:00.0000, 3.390814961895526E+08, -2.495096784661083E+08, 5.994189043737531E+06,
2461337.500000000, A.D. 2026-Oct-24 00:00:00.0000, 3.439382534833772E+08, -2.401476107347880E+08, 4.164408268913269E+06,
2461344.500000000, A.D. 2026-Oct-31 00:00:00.0000, 3.485688652848292E+08, -2.306276846850628E+08, 2.331891107328504E+06,
2461351.500000000, A.D. 2026-Nov-07 00:00:00.0000, 3.529677512530865E+08, -2.209544855138629E+08, 4.978254605619907E+05,
2461358.500000000, A.D. 2026-Nov-14 00:00:00.0000, 3.571293724280437E+08, -2.111328095486185E+08, -1.336573310119346E+06,
2461365.500000000, A.D. 2026-Nov-21 00:00:00.0000, 3.610482387197798E+08, -2.011676667010987E+08, -3.170062250302285E+06,
2461372.500000000, A.D. 2026-Nov-28 00:00:00.0000, 3.647189146827726E+08, -1.910642842909767E+08, -5.001370669525206E+06,
2461379.500000000, A.D. 2026-Dec-05 00:00:00.0000, 3.681360272025874E+08, -1.808281128627838E+08, -6.829200380223528E+06,
2461386.500000000, A.D. 2026-Dec-12 00:00:00.0000, 3.712942752686639E+08, -1.704648308497980E+08, -8.652226085014664E+06,
2461393.500000000, A.D. 2026-Dec-19 00:00:00.0000, 3.741884399542910E+08, -1.599803480421663E+08, -1.046909574436118E+07,
2461400.500000000, A.D. 2026-Dec-26 00:00:00.0000, 3.768133944673258E+08, -1.493808086892700E+08, -1.227843098838877E+07,
2461407.500000000, A.D. 2027-Jan-02 00:00:00.0000, 3.791641145506256E+08, -1.386725943868909E+08, -1.407882761986895E+07,
2461414.500000000, A.D. 2027-Jan-09 00:00:00.0000, 3.812356893493749E+08, -1.278623266864122E+08, -1.586885622370014E+07,
2461421.500000000, A.D. 2027-Jan-16 00:00:00.0000, 3.830233327777338E+08, -1.169568693726620E+08, -1.764706289177439E+07,
2461428.500000000, A.D. 2027-Jan-23 00:00:00.0000, 3.845223954242162E+08, -1.059633304038122E+08, -1.941197007715885E+07,
2461435.500000000, A.D. 2027-Jan-30 00:00:00.0000, 3.857283771720377E+08, -9.488906351314706E+07, -2.116207760525456E+07,
2461442.500000000, A.D. 2027-Feb-06 00:00:00.0000, 3.866369409423678E+08, -8.374166908150804E+07, -2.289586385947623E+07,
2461449.500000000, A.D. 2027-Feb-13 00:00:00.0000, 3.872439270816778E+08, -7.252899300649205E+07, -2.461178700555592E+07,
2461456.500000000, A.D. 2027-Feb-20 00:00:00.0000, 3.875453660104513E+08, -6.125912430675837E+07, -2.630828610831790E+07,
2461463.500000000, A.D. 2027-Feb-27 00:00:00.0000, 3.875374905023026E+08, -4.994039462395069E+07, -2.798378253764506E+07,
2461470.500000000, A.D. 2027-Mar-06 00:00:00.0000, 3.872167505758750E+08, -3.858137764505939E+07, -2.963668178872472E+07,
2461477.500000000, A.D. 2027-Mar-13 00:00:00.0000, 3.865798293604845E+08, -2.719088633969693E+07, -3.126537540700630E+07,
2461484.500000000, A.D. 2027-Mar-20 00:00:00.0000, 3.856236587633463E+08, -1.577796879231801E+07, -3.286824298666768E+07,
2461491.500000000, A.D. 2027-Mar-27 00:00:00.0000, 3.843454350913751E+08, -4.351903125110168E+06, -3.444365430947512E+07,
2461498.500000000, A.D. 2027-Apr-03 00:00:00.0000, 3.827426347748295E+08, 7.077808492477804E+06, -3.598997164920241E+07,
2461505.500000000, A.D. 2027-Apr-10 00:00:00.0000, 3.808130301919973E+08, 1.850144682040517E+07, -3.750555224705085E+07,
2461512.500000000, A.D. 2027-Apr-17 00:00:00.0000, 3.785547055488095E+08, 2.990908354361944E+07, -3.898875096197806E+07,
2461519.500000000, A.D. 2027-Apr-24 00:00:00.0000, 3.759660728185366E+08, 4.129059026748256E+07, -4.043792310800138E+07,
2461526.500000000, A.D. 2027-May-01 00:00:00.0000, 3.730458879603290E+08, 5.263564857828737E+07, -4.185142750228770E+07,
2461533.500000000, A.D. 2027-May-08 00:00:00.0000, 3.697932676338096E+08, 6.393376194910787E+07, -4.322762968791251E+07,
2461540.500000000, A.D. 2027-May-15 00:00:00.0000, 3.662077048172469E+08, 7.517427047319236E+07, -4.456490511112276E+07,
2461547.500000000, A.D. 2027-May-22 00:00:00.0000, 3.622890816709204E+08, 8.634636585319793E+07, -4.586164231601435E+07,
2461554.500000000, A.D. 2027-May-29 00:00:00.0000, 3.580376828970124E+08, 9.743910518349080E+07, -4.711624657701656E+07,
2461561.500000000, A.D. 2027-Jun-05 00:00:00.0000, 3.534542103624275E+08, 1.084414266561566E+08, -4.832714378326883E+07,
2461568.500000000, A.D. 2027-Jun-12 00:00:00.0000, 3.485397968557603E+08, 1.193421676172220E+08, -4.949278434205109E+07,
2461575.500000000, A.D. 2027-Jun-19 00:00:00.0000, 3.432960185279809E+08, 1.301300840252074E+08, -5.061164713287723E+07,
2461582.500000000, A.D. 2027-Jun-26 00:00:00.0000, 3.377249061795934E+08, 1.407938710268013E+08, -5.168224354417797E+07,
2461589.500000000, A.D. 2027-Jul-03 00:00:00.0000, 3.318289554115111E+08, 1.513221846198368E+08, -5.270312158799426E+07,
2461596.500000000, A.D. 2027-Jul-10 00:00:00.0000, 3.256111355612892E+08, 1.617036643589731E+08, -5.367287007755376E+07,
2461603.500000000, A.D. 2027-Jul-17 00:00:00.0000, 3.190748973452170E+08, 1.719269569979474E+08, -5.459012285419574E+07,
2461610.500000000, A.D. 2027-Jul-24 00:00:00.0000, 3.122241792484751E+08, 1.819807409257326E+08, -5.545356306109802E+07,
2461617.500000000, A.D. 2027-Jul-31 00:00:00.0000, 3.050634129649810E+08, 1.918537515388077E+08, -5.626192745873937E+07,
2461624.500000000, A.D. 2027-Aug-07 00:00:00.0000, 2.975975275792083E+08, 2.015348085926754E+08, -5.701401064366584E+07,
2461631.500000000, A.D. 2027-Aug-14 00:00:00.0000, 2.898319500859859E+08, 2.110128451623350E+08, -5.770866895201894E+07,
2461638.500000000, A.D. 2027-Aug-21 00:00:00.0000, 2.817726027823008E+08, 2.202769347244492E+08, -5.834482435316027E+07,
2461645.500000000, A.D. 2027-Aug-28 00:00:00.0000, 2.734259008914019E+08, 2.293163174227940E+08, -5.892146852353303E+07,
2461652.500000000, A.D. 2027-Sep-04 00:00:00.0000, 2.647987491723033E+08, 2.381204278650360E+08, -5.943766675914830E+07,
2461659.500000000, A.D. 2027-Sep-11 00:00:00.0000, 2.558985360680416E+08, 2.466789236295923E+08, -5.989256162411970E+07,
2461666.500000000, A.D. 2027-Sep-18 00:00:00.0000, 2.467331254919738E+08, 2.549817136654828E+08, -6.028537637289251E+07,
2461673.500000000, A.D. 2027-Sep-25 00:00:00.0000, 2.373108464638834E+08, 2.630189863342828E+08, -6.061541814654274E+07,
2461680.500000000, A.D. 2027-Oct-02 00:00:00.0000, 2.276404806711439E+08, 2.707812369441270E+08, -6.088208092176718E+07,
2461687.500000000, A.D. 2027-Oct-09 00:00:00.0000, 2.177312479956567E+08, 2.782592945914368E+08, -6.108484819029117E+07,
2461694.500000000, A.D. 2027-Oct-16 00:00:00.0000, 2.075927901066144E+08, 2.854443480757703E+08, -6.122329535598223E+07,
2461701.500000000, A.D. 2027-Oct-23 00:00:00.0000, 1.972351524351446E+08, 2.923279707051736E+08, -6.129709185327613E+07,
2461708.500000000, A.D. 2027-Oct-30 00:00:00.0000, 1.866687649823795E+08, 2.989021444298310E+08, -6.130600295367045E+07,
2461715.500000000, A.D. 2027-Nov-06 00:00:00.0000, 1.759044208929057E+08, 3.051592842609420E+08, -6.124989104524706E+07,
2461722.500000000, A.D. 2027-Nov-13 00:00:00.0000, 1.649532509142486E+08, 3.110922607339495E+08, -6.112871635670250E+07,
2461729.500000000, A.D. 2027-Nov-20 00:00:00.0000, 1.538266967700723E+08, 3.166944180868852E+08, -6.094253756052232E+07,
2461736.500000000, A.D. 2027-Nov-27 00:00:00.0000, 1.425364852131445E+08, 3.219595909832840E+08, -6.069151215565852E+07,
2461743.500000000, A.D. 2027-Dec-04 00:00:00.0000, 1.310946008904922E+08, 3.268821205655912E+08, -6.037589636356115E+07,
2461750.500000000, A.D. 2027-Dec-11 00:00:00.0000, 1.195132576347297E+08, 3.314568687661275E+08, -5.999604456329881E+07,
2461757.500000000, A.D. 2027-Dec-18 00:00:00.0000, 1.078048686316413E+08, 3.356792304479767E+08, -5.955240832093279E+07,
2461764.500000000, A.D. 2027-Dec-25 00:00:00.0000, 9.598201579977386E+07, 3.395451433052984E+08, -5.904553503408690E+07,
2461771.500000000, A.D. 2028-Jan-01 00:00:00.0000, 8.405741861402993E+07, 3.430510954896867E+08, -5.847606620537437E+07,
$$EOE